[
    { "state": "Ahuachapán", "id_depto": 1, "city": "Ahuachapán", "zip": "2101" , "title": "Ciudad Cabecera" , "district": "Ahuachapán" },
    { "state": "Ahuachapán", "id_depto": 1, "city": "Apaneca", "zip": "2102" , "title": "Villa" , "district": "Ahuachapán" },
    { "state": "Ahuachapán", "id_depto": 1, "city": "Atiquizaya", "zip": "2103" , "title": "Ciudad" , "district": "Atiquizaya" },
    { "state": "Ahuachapán", "id_depto": 1, "city": "Concepción de Ataco", "zip": "2106" , "title": "Ciudad" , "district": "Ahuachapán" },
    { "state": "Ahuachapán", "id_depto": 1, "city": "El Refugio" , "zip": "2107", "title": "Pueblo" , "district": "Atiquizaya" },
    { "state": "Ahuachapán", "id_depto": 1, "city": "Guaymango" , "zip": "2108", "title": "Pueblo" , "district": "Ahuachapán" },
    { "state": "Ahuachapán", "id_depto": 1, "city": "Jujutla" , "zip": "2109", "title": "Villa" , "district": "Ahuachapán" },
    { "state": "Ahuachapán", "id_depto": 1, "city": "San Francisco Menéndez" , "zip": "2113", "title": "Pueblo" , "district": "Ahuachapán" },
    { "state": "Ahuachapán", "id_depto": 1, "city": "San Lorenzo" , "zip": "2115", "title": "Pueblo" , "district": "Atiquizaya" },
    { "state": "Ahuachapán", "id_depto": 1, "city": "San Pedro Puxtla" , "zip": "2116", "title": "Villa" , "district": "Ahuachapán" },
    { "state": "Ahuachapán", "id_depto": 1, "city": "Tacuba" , "zip": "2117", "title": "Ciudad" , "district": "Ahuachapán" },
    { "state": "Ahuachapán", "id_depto": 1, "city": "Turín" , "zip": "2118", "title": "Pueblo" , "district": "Atiquizaya" },
    { "state": "Cabañas", "id_depto": 2, "city": "Sensuntepeque" , "zip": "1201", "title": "Ciudad Cabecera" , "district": "Sensuntepeque" },
    { "state": "Cabañas", "id_depto": 2, "city": "Cinquera" , "zip": "1202", "title": "Pueblo" , "district": "Ilobasco" },
    { "state": "Cabañas", "id_depto": 2, "city": "Dolores" , "zip": "1209", "title": "Ciudad" , "district": "Sensuntepeque" },
    { "state": "Cabañas", "id_depto": 2, "city": "Guacotecti" , "zip": "1203", "title": "Villa" , "district": "Sensuntepeque" },
    { "state": "Cabañas", "id_depto": 2, "city": "Ilobasco" , "zip": "1204", "title": "Ciudad" , "district": "Ilobasco" },
    { "state": "Cabañas", "id_depto": 2, "city": "Jutiapa" , "zip": "1206", "title": "Villa" , "district": "Ilobasco" },
    { "state": "Cabañas", "id_depto": 2, "city": "San Isidro" , "zip": "1207", "title": "Ciudad" , "district": "Sensuntepeque" },
    { "state": "Cabañas", "id_depto": 2, "city": "Tejutepeque" , "zip": "1208", "title": "Ciudad" , "district": "Ilobasco" },
    { "state": "Cabañas", "id_depto": 2, "city": "Victoria" , "zip": "1210", "title": "Ciudad" , "district": "Sensuntepeque" },
    { "state": "Chalatenango", "id_depto": 3, "city": "Chalatenango" , "zip": "1301", "title": "Ciudad Cabecera" , "district": "Chalatenango" },
    { "state": "Chalatenango", "id_depto": 3, "city": "Agua Caliente" , "zip": "1302", "title": "Villa" , "district": "Tejutla" },
    { "state": "Chalatenango", "id_depto": 3, "city": "Arcatao" , "zip": "1303", "title": "Ciudad" , "district": "Chalatenango" },
    { "state": "Chalatenango", "id_depto": 3, "city": "Azacualpa" , "zip": "1304", "title": "Pueblo" , "district": "Chalatenango" },
    { "state": "Chalatenango", "id_depto": 3, "city": "Cancasque" , "zip": "1305", "title": "Pueblo" , "district": "Chalatenango" },
    { "state": "Chalatenango", "id_depto": 3, "city": "Citalá" , "zip": "1306", "title": "Villa" , "district": "Tejutla" },
    { "state": "Chalatenango", "id_depto": 3, "city": "Comalapa" , "zip": "1307", "title": "Pueblo" , "district": "Dulce Nombre de María" },
    { "state": "Chalatenango", "id_depto": 3, "city": "Concepción Quezaltepeque" , "zip": "1308", "title": "Villa" , "district": "Chalatenango" },
    { "state": "Chalatenango", "id_depto": 3, "city": "Dulce Nombre de María" , "zip": "1309", "title": "Ciudad" , "district": "Dulce Nombre de María" },
    { "state": "Chalatenango", "id_depto": 3, "city": "El Carrizal" , "zip": "1311", "title": "Pueblo" , "district": "Chalatenango" },
    { "state": "Chalatenango", "id_depto": 3, "city": "El Paraíso" , "zip": "1312", "title": "Pueblo" , "district": "Dulce Nombre de María" },
    { "state": "Chalatenango", "id_depto": 3, "city": "La Laguna" , "zip": "1313", "title": "Pueblo" , "district": "Dulce Nombre de María" },
    { "state": "Chalatenango", "id_depto": 3, "city": "La Palma" , "zip": "1314", "title": "Ciudad" , "district": "Tejutla" },
    { "state": "Chalatenango", "id_depto": 3, "city": "La Reina" , "zip": "1315", "title": "Villa" , "district": "Tejutla" },
    { "state": "Chalatenango", "id_depto": 3, "city": "Las Flores" , "zip": "1316", "title": "Pueblo" , "district": "Chalatenango" },
    { "state": "Chalatenango", "id_depto": 3, "city": "Las Vueltas" , "zip": "1317", "title": "Pueblo" , "district": "Chalatenango" },
    { "state": "Chalatenango", "id_depto": 3, "city": "Nombre de Jesús" , "zip": "1318", "title": "Pueblo" , "district": "Chalatenango" },
    { "state": "Chalatenango", "id_depto": 3, "city": "Nueva Concepción" , "zip": "1319", "title": "Ciudad" , "district": "Tejutla" },
    { "state": "Chalatenango", "id_depto": 3, "city": "Nueva Trinidad" , "zip": "1320", "title": "Pueblo" , "district": "Chalatenango" },
    { "state": "Chalatenango", "id_depto": 3, "city": "Ojos de Agua" , "zip": "1321", "title": "Pueblo" , "district": "Chalatenango" },
    { "state": "Chalatenango", "id_depto": 3, "city": "Potonico" , "zip": "1322", "title": "Pueblo" , "district": "Chalatenango" },
    { "state": "Chalatenango", "id_depto": 3, "city": "San Antonio de la Cruz" , "zip": "1324", "title": "Pueblo" , "district": "Chalatenango" },
    { "state": "Chalatenango", "id_depto": 3, "city": "San Antonio Los Ranchos" , "zip": "1325", "title": "Pueblo" , "district": "Chalatenango" },
    { "state": "Chalatenango", "id_depto": 3, "city": "San Fernando" , "zip": "1326", "title": "Villa" , "district": "Dulce Nombre de María" },
    { "state": "Chalatenango", "id_depto": 3, "city": "San Francisco Lempa" , "zip": "1327", "title": "Villa" , "district": "Chalatenango" },
    { "state": "Chalatenango", "id_depto": 3, "city": "San Francisco Morazán" , "zip": "1328", "title": "Pueblo" , "district": "Dulce Nombre de María" },
    { "state": "Chalatenango", "id_depto": 3, "city": "San Ignacio" , "zip": "1329", "title": "Villa" , "district": "Tejutla" },
    { "state": "Chalatenango", "id_depto": 3, "city": "San Isidro Labrador" , "zip": "1330", "title": "Villa" , "district": "Chalatenango" },
    { "state": "Chalatenango", "id_depto": 3, "city": "San Luis del Carmen" , "zip": "1331", "title": "Pueblo" , "district": "Chalatenango" },
    { "state": "Chalatenango", "id_depto": 3, "city": "San Miguel de Mercedes" , "zip": "1332", "title": "Villa" , "district": "Chalatenango" },
    { "state": "Chalatenango", "id_depto": 3, "city": "San Rafael" , "zip": "1333", "title": "Pueblo" , "district": "Dulce Nombre de María" },
    { "state": "Chalatenango", "id_depto": 3, "city": "Santa Rita" , "zip": "1334", "title": "Pueblo" , "district": "Dulce Nombre de María" },
    { "state": "Chalatenango", "id_depto": 3, "city": "Tejutla" , "zip": "1335", "title": "Ciudad" , "district": "Tejutla" },
    { "state": "Cuscatlán", "id_depto": 4, "city": "Cojutepeque" , "zip": "1401", "title": "Ciudad Cabecera" , "district": "Cojutepeque" },
    { "state": "Cuscatlán", "id_depto": 4, "city": "Candelaria" , "zip": "1302", "title": "Villa" , "district": "Cojutepeque" },
    { "state": "Cuscatlán", "id_depto": 4, "city": "El Carmen" , "zip": "1403", "title": "Pueblo" , "district": "Cojutepeque" },
    { "state": "Cuscatlán", "id_depto": 4, "city": "El Rosario" , "zip": "1404", "title": "Pueblo" , "district": "Cojutepeque" },
    { "state": "Cuscatlán", "id_depto": 4, "city": "Monte San Juan" , "zip": "1405", "title": "Pueblo" , "district": "Cojutepeque" },
    { "state": "Cuscatlán", "id_depto": 4, "city": "Oratorio de Concepción" , "zip": "1406", "title": "Pueblo" , "district": "Suchitoto" },
    { "state": "Cuscatlán", "id_depto": 4, "city": "San Bartolomé Perulapía" , "zip": "1407", "title": "Villa" , "district": "Cojutepeque" },
    { "state": "Cuscatlán", "id_depto": 4, "city": "San Cristóbal" , "zip": "1408", "title": "Villa" , "district": "Cojutepeque" },
    { "state": "Cuscatlán", "id_depto": 4, "city": "San José Guayabal" , "zip": "1409", "title": "Villa" , "district": "Suchitoto" },
    { "state": "Cuscatlán", "id_depto": 4, "city": "San Pedro Perulapán" , "zip": "1410", "title": "Ciudad" , "district": "Cojutepeque" },
    { "state": "Cuscatlán", "id_depto": 4, "city": "San Rafael Cedros" , "zip": "1411", "title": "Ciudad" , "district": "Cojutepeque" },
    { "state": "Cuscatlán", "id_depto": 4, "city": "San Ramón" , "zip": "1412", "title": "Pueblo" , "district": "Cojutepeque" },
    { "state": "Cuscatlán", "id_depto": 4, "city": "Santa Cruz Analquito" , "zip": "1413", "title": "Pueblo" , "district": "Cojutepeque" },
    { "state": "Cuscatlán", "id_depto": 4, "city": "Santa Cruz Michapa" , "zip": "1414", "title": "Pueblo" , "district": "Cojutepeque" },
    { "state": "Cuscatlán", "id_depto": 4, "city": "Suchitoto" , "zip": "1415", "title": "Ciudad" , "district": "Suchitoto" },
    { "state": "Cuscatlán", "id_depto": 4, "city": "Tenancingo" , "zip": "1416", "title": "Villa" , "district": "Cojutepeque" },
    { "state": "La Libertad", "id_depto":5, "city": "Santa Tecla" , "zip": "1501", "title": "Ciudad Cabecera" , "district": "Santa Tecla" },
    { "state": "La Libertad", "id_depto":5, "city": "Antiguo Cuscatlán" , "zip": "1502", "title": "Ciudad" , "district": "Santa Tecla" },
    { "state": "La Libertad", "id_depto":5, "city": "Chiltiupán" , "zip": "1507", "title": "Pueblo" , "district": "Santa Tecla" },
    { "state": "La Libertad", "id_depto":5, "city": "Ciudad Arce" , "zip": "1504", "title": "Ciudad" , "district": "San Juan Opico" },
    { "state": "La Libertad", "id_depto":5, "city": "Colón" , "zip": "1512", "title": "Villa" , "district": "Santa Tecla" },
    { "state": "La Libertad", "id_depto":5, "city": "Comasagua" , "zip": "1506", "title": "Villa" , "district": "Santa Tecla" },
    { "state": "La Libertad", "id_depto":5, "city": "Huizúcar" , "zip": "1508", "title": "Villa" , "district": "Santa Tecla" },
    { "state": "La Libertad", "id_depto":5, "city": "Jayaque" , "zip": "1509", "title": "Ciudad" , "district": "Santa Tecla" },
    { "state": "La Libertad", "id_depto":5, "city": "Jicalapa" , "zip": "1510", "title": "Pueblo" , "district": "Santa Tecla" },
    { "state": "La Libertad", "id_depto":5, "city": "La Libertad" , "zip": "1511", "title": "Ciudad" , "district": "Santa Tecla" },
    { "state": "La Libertad", "id_depto":5, "city": "Nuevo Cuscatlán" , "zip": "1513", "title": "Pueblo" , "district": "Santa Tecla" },
    { "state": "La Libertad", "id_depto":5, "city": "Quezaltepeque" , "zip": "1515", "title": "Ciudad" , "district": "Quezaltepeque" },
    { "state": "La Libertad", "id_depto":5, "city": "San Juan Opico" , "zip": "1514", "title": "Ciudad" , "district": "San Juan Opico" },
    { "state": "La Libertad", "id_depto":5, "city": "Sacacoyo" , "zip": "1516", "title": "Pueblo" , "district": "Santa Tecla" },
    { "state": "La Libertad", "id_depto":5, "city": "San José Villanueva" , "zip": "1517", "title": "Pueblo" , "district": "Santa Tecla" },
    { "state": "La Libertad", "id_depto":5, "city": "San Matías" , "zip": "1518", "title": "Villa" , "district": "San Juan Opico" },
    { "state": "La Libertad", "id_depto":5, "city": "San Pablo Tacachico" , "zip": "1519", "title": "Villa" , "district": "Quezaltepeque" },
    { "state": "La Libertad", "id_depto":5, "city": "Talnique" , "zip": "1521", "title": "Pueblo" , "district": "Santa Tecla" },
    { "state": "La Libertad", "id_depto":5, "city": "Tamanique" , "zip": "1522", "title": "Pueblo" , "district": "Santa Tecla" },
    { "state": "La Libertad", "id_depto":5, "city": "Teotepeque" , "zip": "1523", "title": "Villa" , "district": "Santa Tecla" },
    { "state": "La Libertad", "id_depto":5, "city": "Tepecoyo" , "zip": "1524", "title": "Villa" , "district": "Santa Tecla" },
    { "state": "La Libertad", "id_depto":5, "city": "Zaragoza" , "zip": "1525", "title": "Ciudad" , "district": "Santa Tecla" },
    { "state": "La Paz", "id_depto": 6, "city": "Zacatecoluca" , "zip": "1601", "title": "Ciudad Cabecera" , "district": "Zacatecoluca" },
    { "state": "La Paz", "id_depto": 6, "city": "Cuyultitán" , "zip": "1603", "title": "Villa" , "district": "Olocuilta" },
    { "state": "La Paz", "id_depto": 6, "city": "El Rosario" , "zip": "1604", "title": "Ciudad" , "district": "San Pedro Masahuat" },
    { "state": "La Paz", "id_depto": 6, "city": "Jerusalén" , "zip": "1605", "title": "Pueblo" , "district": "San Pedro Nonualco" },
    { "state": "La Paz", "id_depto": 6, "city": "Mercedes La Ceiba" , "zip": "1607", "title": "Pueblo" , "district": "San Pedro Nonualco" },
    { "state": "La Paz", "id_depto": 6, "city": "Olocuilta" , "zip": "1608", "title": "Ciudad" , "district": "Olocuilta" },
    { "state": "La Paz", "id_depto": 6, "city": "Paraíso de Osorio" , "zip": "1609", "title": "Pueblo" , "district": "San Pedro Nonualco" },
    { "state": "La Paz", "id_depto": 6, "city": "San Antonio Masahuat" , "zip": "1610", "title": "Pueblo" , "district": "San Pedro Masahuat" },
    { "state": "La Paz", "id_depto": 6, "city": "San Emigdio" , "zip": "1611", "title": "Pueblo" , "district": "San Pedro Nonualco" },
    { "state": "La Paz", "id_depto": 6, "city": "San Francisco Chinameca" , "zip": "1612", "title": "Pueblo" , "district": "Olocuilta" },
    { "state": "La Paz", "id_depto": 6, "city": "San Pedro Masahuat" , "zip": "1618", "title": "Ciudad" , "district": "San Pedro Masahuat" },
    { "state": "La Paz", "id_depto": 6, "city": "San Juan Nonualco" , "zip": "1613", "title": "Ciudad" , "district": "Zacatecoluca" },
    { "state": "La Paz", "id_depto": 6, "city": "San Juan Talpa" , "zip": "1614", "title": "Villa" , "district": "Olocuilta" },
    { "state": "La Paz", "id_depto": 6, "city": "San Juan Tepezontes" , "zip": "1615", "title": "Villa" , "district": "San Pedro Masahuat" },
    { "state": "La Paz", "id_depto": 6, "city": "San Luis La Herradura" , "zip": "1606", "title": "Pueblo" , "district": "Zacatecoluca" },
    { "state": "La Paz", "id_depto": 6, "city": "San Luis Talpa" , "zip": "1616", "title": "Villa" , "district": "Olocuilta" },
    { "state": "La Paz", "id_depto": 6, "city": "San Miguel Tepezontes" , "zip": "1617", "title": "Villa" , "district": "San Pedro Masahuat" },
    { "state": "La Paz", "id_depto": 6, "city": "San Pedro Nonualco" , "zip": "1619", "title": "Ciudad" , "district": "San Pedro Nonualco" },
    { "state": "La Paz", "id_depto": 6, "city": "San Rafael Obrajuelo" , "zip": "1620", "title": "Ciudad" , "district": "Zacatecoluca" },
    { "state": "La Paz", "id_depto": 6, "city": "Santa María Ostuma" , "zip": "1621", "title": "Villa" , "district": "San Pedro Nonualco" },
    { "state": "La Paz", "id_depto": 6, "city": "Santiago Nonualco" , "zip": "1622", "title": "Ciudad" , "district": "Zacatecoluca" },
    { "state": "La Paz", "id_depto": 6, "city": "Tapalhuaca" , "zip": "1623", "title": "Pueblo" , "district": "Olocuilta" },
    { "state": "La Unión", "id_depto":7, "city": "La Unión" , "zip": "3101", "title": "Ciudad Cabecera" , "district": "La Unión" },
    { "state": "La Unión", "id_depto":7, "city": "Anamorós" , "zip": "3104", "title": "Ciudad" , "district": "Santa Rosa de Lima" },
    { "state": "La Unión", "id_depto":7, "city": "Bolívar" , "zip": "3105", "title": "Pueblo" , "district": "La Unión" },
    { "state": "La Unión", "id_depto":7, "city": "Concepción de Oriente" , "zip": "3106", "title": "Villa" , "district": "Santa Rosa de Lima" },
    { "state": "La Unión", "id_depto":7, "city": "Conchagua" , "zip": "3107", "title": "Villa" , "district": "La Unión" },
    { "state": "La Unión", "id_depto":7, "city": "El Carmen" , "zip": "3108", "title": "Villa" , "district": "La Unión" },
    { "state": "La Unión", "id_depto":7, "city": "El Sauce" , "zip": "3109", "title": "Villa" , "district": "Santa Rosa de Lima" },
    { "state": "La Unión", "id_depto":7, "city": "Intipucá" , "zip": "3111", "title": "Villa" , "district": "La Unión" },
    { "state": "La Unión", "id_depto":7, "city": "Lislique" , "zip": "3112", "title": "Villa" , "district": "Santa Rosa de Lima" },
    { "state": "La Unión", "id_depto":7, "city": "Meanguera del Golfo" , "zip": "3113", "title": "Pueblo" , "district": "La Unión" },
    { "state": "La Unión", "id_depto":7, "city": "Nueva Esparta" , "zip": "3114", "title": "Ciudad" , "district": "Santa Rosa de Lima" },
    { "state": "La Unión", "id_depto":7, "city": "Pasaquina" , "zip": "3116", "title": "Ciudad" , "district": "Santa Rosa de Lima" },
    { "state": "La Unión", "id_depto":7, "city": "Polorós" , "zip": "3117", "title": "Villa" , "district": "Santa Rosa de Lima" },
    { "state": "La Unión", "id_depto":7, "city": "San Alejo" , "zip": "3119", "title": "Ciudad" , "district": "La Unión" },
    { "state": "La Unión", "id_depto":7, "city": "San José" , "zip": "3120", "title": "Villa" , "district": "La Unión" },
    { "state": "La Unión", "id_depto":7, "city": "Santa Rosa de Lima" , "zip": "3121", "title": "Ciudad" , "district": "Santa Rosa de Lima" },
    { "state": "La Unión", "id_depto":7, "city": "Yayantique" , "zip": "3122", "title": "Pueblo" , "district": "La Unión" },
    { "state": "La Unión", "id_depto":7, "city": "Yucuaiquín" , "zip": "3123", "title": "Villa" , "district": "La Unión" },
    { "state": "Morazán", "id_depto": 8, "city": "San Francisco Gotera" , "zip": "3201", "title": "Ciudad Cabecera" , "district": "San Francisco" },
    { "state": "Morazán", "id_depto": 8, "city": "Arambala" , "zip": "3202", "title": "Pueblo" , "district": "Jocoaitique" },
    { "state": "Morazán", "id_depto": 8, "city": "Cacaopera" , "zip": "3216", "title": "Ciudad" , "district": "Osicala" },
    { "state": "Morazán", "id_depto": 8, "city": "Chilanga" , "zip": "3203", "title": "Villa" , "district": "San Francisco" },
    { "state": "Morazán", "id_depto": 8, "city": "Corinto" , "zip": "3204", "title": "Ciudad" , "district": "Osicala" },
    { "state": "Morazán", "id_depto": 8, "city": "Delicias de Concepción" , "zip": "3206", "title": "Pueblo" , "district": "Osicala" },
    { "state": "Morazán", "id_depto": 8, "city": "El Divisadero" , "zip": "3207", "title": "Villa" , "district": "San Francisco" },
    { "state": "Morazán", "id_depto": 8, "city": "El Rosario" , "zip": "3208", "title": "Villa" , "district": "Jocoaitique" },
    { "state": "Morazán", "id_depto": 8, "city": "Gualococti" , "zip": "3209", "title": "Pueblo" , "district": "Osicala" },
    { "state": "Morazán", "id_depto": 8, "city": "Guatajiagua" , "zip": "3210", "title": "Ciudad" , "district": "San Francisco" },
    { "state": "Morazán", "id_depto": 8, "city": "Joateca" , "zip": "3211", "title": "Pueblo" , "district": "Jocoaitique" },
    { "state": "Morazán", "id_depto": 8, "city": "Jocoaitique" , "zip": "3212", "title": "Ciudad" , "district": "Jocoaitique" },
    { "state": "Morazán", "id_depto": 8, "city": "Jocoro" , "zip": "3213", "title": "Ciudad" , "district": "San Francisco" },
    { "state": "Morazán", "id_depto": 8, "city": "Lolotiquillo" , "zip": "3214", "title": "Pueblo" , "district": "San Francisco" },
    { "state": "Morazán", "id_depto": 8, "city": "Meanguera" , "zip": "3215", "title": "Ciudad" , "district": "Jocoaitique" },
    { "state": "Morazán", "id_depto": 8, "city": "Osicala" , "zip": "3216", "title": "Ciudad" , "district": "Osicala" },
    { "state": "Morazán", "id_depto": 8, "city": "Perquín" , "zip": "3217", "title": "Pueblo" , "district": "Jocoaitique" },
    { "state": "Morazán", "id_depto": 8, "city": "San Carlos" , "zip": "3218", "title": "Ciudad" , "district": "San Francisco" },
    { "state": "Morazán", "id_depto": 8, "city": "San Fernando" , "zip": "3219", "title": "Pueblo" , "district": "Jocoaitique" },
    { "state": "Morazán", "id_depto": 8, "city": "San Isidro" , "zip": "3220", "title": "Villa" , "district": "Osicala" },
    { "state": "Morazán", "id_depto": 8, "city": "San Simón" , "zip": "3221", "title": "Villa" , "district": "Osicala" },
    { "state": "Morazán", "id_depto": 8, "city": "Sensembra" , "zip": "3222", "title": "Pueblo" , "district": "San Francisco" },
    { "state": "Morazán", "id_depto": 8, "city": "Sociedad" , "zip": "3223", "title": "Ciudad" , "district": "San Francisco" },
    { "state": "Morazán", "id_depto": 8, "city": "Torola" , "zip": "3224", "title": "Pueblo" , "district": "Jocoaitique" },
    { "state": "Morazán", "id_depto": 8, "city": "Yamabal" , "zip": "3225", "title": "Pueblo" , "district": "San Francisco" },
    { "state": "Morazán", "id_depto": 8, "city": "Yoloaiquín" , "zip": "3226", "title": "Pueblo" , "district": "Osicala" },
    { "state": "San Miguel", "id_depto": 9, "city": "San Miguel" , "zip": "3301", "title": "Ciudad Cabecera" , "district": "San Miguel" },
    { "state": "San Miguel", "id_depto": 9, "city": "Carolina" , "zip": "3302", "title": "Villa" , "district": "Sesori" },
    { "state": "San Miguel", "id_depto": 9, "city": "Chapeltique" , "zip": "3305", "title": "Ciudad" , "district": "San Miguel" },
    { "state": "San Miguel", "id_depto": 9, "city": "Chinameca" , "zip": "3306", "title": "Ciudad" , "district": "Chinameca" },
    { "state": "San Miguel", "id_depto": 9, "city": "Chirilagua" , "zip": "3307", "title": "Ciudad" , "district": "San Miguel" },
    { "state": "San Miguel", "id_depto": 9, "city": "Ciudad Barrios" , "zip": "3303", "title": "Ciudad" , "district": "San Miguel" },
    { "state": "San Miguel", "id_depto": 9, "city": "Comacarán" , "zip": "3304", "title": "Villa" , "district": "San Miguel" },
    { "state": "San Miguel", "id_depto": 9, "city": "El Tránsito" , "zip": "3309", "title": "Ciudad" , "district": "Chinameca" },
    { "state": "San Miguel", "id_depto": 9, "city": "Lolotique" , "zip": "3311", "title": "Ciudad" , "district": "Chinameca" },
    { "state": "San Miguel", "id_depto": 9, "city": "Moncagua" , "zip": "3312", "title": "Ciudad" , "district": "San Miguel" },
    { "state": "San Miguel", "id_depto": 9, "city": "Nueva Guadalupe" , "zip": "3313", "title": "Ciudad" , "district": "Chinameca" },
    { "state": "San Miguel", "id_depto": 9, "city": "Nuevo Edén de San Juan" , "zip": "3314", "title": "Pueblo" , "district": "Sesori" },
    { "state": "San Miguel", "id_depto": 9, "city": "Quelepa" , "zip": "3315", "title": "Villa" , "district": "San Miguel" },
    { "state": "San Miguel", "id_depto": 9, "city": "San Antonio del Mosco" , "zip": "3316", "title": "Pueblo" , "district": "Sesori" },
    { "state": "San Miguel", "id_depto": 9, "city": "San Gerardo" , "zip": "3318", "title": "Villa" , "district": "Sesori" },
    { "state": "San Miguel", "id_depto": 9, "city": "San Jorge" , "zip": "3319", "title": "Ciudad" , "district": "Chinameca" },
    { "state": "San Miguel", "id_depto": 9, "city": "San Luis de la Reina" , "zip": "3320", "title": "Villa" , "district": "Sesori" },
    { "state": "San Miguel", "id_depto": 9, "city": "San Rafael Oriente" , "zip": "3322", "title": "Ciudad" , "district": "Chinameca" },
    { "state": "San Miguel", "id_depto": 9, "city": "Sesori" , "zip": "3323", "title": "Ciudad" , "district": "Sesori" },
    { "state": "San Miguel", "id_depto": 9, "city": "Uluazapa" , "zip": "3324", "title": "Villa" , "district": "San Miguel" },
    { "state": "San Salvador", "id_depto":10, "city": "San Salvador" , "zip": "1101", "title": "Ciudad Cabecera Capital" , "district": "San Salvador" },
    { "state": "San Salvador", "id_depto":10, "city": "Aguilares" , "zip": "1122", "title": "Ciudad" , "district": "Tonacatepeque" },
    { "state": "San Salvador", "id_depto":10, "city": "Apopa" , "zip": "1123", "title": "Ciudad" , "district": "Tonacatepeque" },
    { "state": "San Salvador", "id_depto":10, "city": "Ayutuxtepeque" , "zip": "1121", "title": "Ciudad" , "district": "San Salvador" },
    { "state": "San Salvador", "id_depto":10, "city": "Cuscatancingo" , "zip": "1119", "title": "Ciudad" , "district": "San Salvador" },
    { "state": "San Salvador", "id_depto":10, "city": "Delgado" , "zip": "1118", "title": "Ciudad" , "district": "San Salvador" },
    { "state": "San Salvador", "id_depto":10, "city": "El Paisnal" , "zip": "1124", "title": "Villa" , "district": "Tonacatepeque" },
    { "state": "San Salvador", "id_depto":10, "city": "Guazapa" , "zip": "1125", "title": "Ciudad" , "district": "Tonacatepeque" },
    { "state": "San Salvador", "id_depto":10, "city": "Ilopango" , "zip": "1117", "title": "Ciudad" , "district": "Tonacatepeque" },
    { "state": "San Salvador", "id_depto":10, "city": "Mejicanos" , "zip": "1120", "title": "Ciudad" , "district": "San Salvador" },
    { "state": "San Salvador", "id_depto":10, "city": "Nejapa" , "zip": "1126", "title": "Ciudad" , "district": "Tonacatepeque" },
    { "state": "San Salvador", "id_depto":10, "city": "Panchimalco" , "zip": "1127", "title": "Villa" , "district": "Santo Tomás" },
    { "state": "San Salvador", "id_depto":10, "city": "Rosario de Mora" , "zip": "1128", "title": "Pueblo" , "district": "Santo Tomás" },
    { "state": "San Salvador", "id_depto":10, "city": "San Marcos" , "zip": "1115", "title": "Ciudad" , "district": "Santo Tomás" },
    { "state": "San Salvador", "id_depto":10, "city": "San Martín" , "zip": "1129", "title": "Ciudad" , "district": "Tonacatepeque" },
    { "state": "San Salvador", "id_depto":10, "city": "Santiago Texacuangos" , "zip": "1130", "title": "Villa" , "district": "Santo Tomás" },
    { "state": "San Salvador", "id_depto":10, "city": "Santo Tomás" , "zip": "1131", "title": "Ciudad" , "district": "Santo Tomás" },
    { "state": "San Salvador", "id_depto":10, "city": "Soyapango" , "zip": "1116", "title": "Ciudad" , "district": "San Salvador" },
    { "state": "San Salvador", "id_depto":10, "city": "Tonacatepeque" , "zip": "1132", "title": "Ciudad" , "district": "Tonacatepeque" },
    { "state": "San Vicente", "id_depto": 11, "city": "San Vicente" , "zip": "1701", "title": "Ciudad Cabecera" , "district": "San Vicente" },
    { "state": "San Vicente", "id_depto": 11, "city": "Apastepeque" , "zip": "1702", "title": "Ciudad" , "district": "San Vicente" },
    { "state": "San Vicente", "id_depto": 11, "city": "Guadalupe" , "zip": "1703", "title": "Ciudad" , "district": "San Vicente" },
    { "state": "San Vicente", "id_depto": 11, "city": "San Cayetano Istepeque" , "zip": "1704", "title": "Villa" , "district": "San Vicente" },
    { "state": "San Vicente", "id_depto": 11, "city": "San Esteban Catarina" , "zip": "1705", "title": "Villa" , "district": "San Sebastián" },
    { "state": "San Vicente", "id_depto": 11, "city": "San Ildefonso" , "zip": "1706", "title": "Villa" , "district": "San Sebastián" },
    { "state": "San Vicente", "id_depto": 11, "city": "San Lorenzo" , "zip": "1707", "title": "Villa" , "district": "San Sebastián" },
    { "state": "San Vicente", "id_depto": 11, "city": "San Sebastián" , "zip": "1708", "title": "Ciudad" , "district": "San Sebastián" },
    { "state": "San Vicente", "id_depto": 11, "city": "Santa Clara" , "zip": "1709", "title": "Villa" , "district": "San Sebastián" },
    { "state": "San Vicente", "id_depto": 11, "city": "Santo Domingo" , "zip": "1710", "title": "Ciudad" , "district": "San Sebastián" },
    { "state": "San Vicente", "id_depto": 11, "city": "Tecoluca" , "zip": "1711", "title": "Ciudad" , "district": "San Vicente" },
    { "state": "San Vicente", "id_depto": 11, "city": "Tepetitán" , "zip": "1712", "title": "Villa" , "district": "San Vicente" },
    { "state": "San Vicente", "id_depto": 11, "city": "Verapaz" , "zip": "1713", "title": "Ciudad" , "district": "San Vicente" },
    { "state": "Santa Ana", "id_depto":12, "city": "Santa Ana" , "zip": "2201", "title": "Ciudad Cabecera" , "district": "Santa Ana" },
    { "state": "Santa Ana", "id_depto":12, "city": "Candelaria de la Frontera" , "zip": "2203", "title": "Villa" , "district": "Chalchuapa" },
    { "state": "Santa Ana", "id_depto":12, "city": "Chalchuapa" , "zip": "2205", "title": "Ciudad" , "district": "Chalchuapa" },
    { "state": "Santa Ana", "id_depto":12, "city": "Coatepeque" , "zip": "2204", "title": "Ciudad" , "district": "Santa Ana" },
    { "state": "Santa Ana", "id_depto":12, "city": "El Congo" , "zip": "2207", "title": "Villa" , "district": "Santa Ana" },
    { "state": "Santa Ana", "id_depto":12, "city": "El Porvenir" , "zip": "2208", "title": "Pueblo" , "district": "Chalchuapa" },
    { "state": "Santa Ana", "id_depto":12, "city": "Masahuat" , "zip": "2210", "title": "Pueblo" , "district": "Metapán" },
    { "state": "Santa Ana", "id_depto":12, "city": "Metapán" , "zip": "2211", "title": "Ciudad" , "district": "Metapán" },
    { "state": "Santa Ana", "id_depto":12, "city": "San Antonio Pajonal" , "zip": "2212", "title": "Pueblo" , "district": "Chalchuapa" },
    { "state": "Santa Ana", "id_depto":12, "city": "San Sebastián Salitrillo" , "zip": "2215", "title": "Pueblo" , "district": "Chalchuapa" },
    { "state": "Santa Ana", "id_depto":12, "city": "Santa Rosa Guachipilín" , "zip": "2216", "title": "Pueblo" , "district": "Metapán" },
    { "state": "Santa Ana", "id_depto":12, "city": "Santiago de la Frontera" , "zip": "2217", "title": "Pueblo" , "district": "Metapán" },
    { "state": "Santa Ana", "id_depto":12, "city": "Texistepeque" , "zip": "2218", "title": "Ciudad" , "district": "Santa Ana" },
    { "state": "Sonsonate", "id_depto":13, "city": "Sonsonate" , "zip": "2301", "title": "Ciudad Cabecera" , "district": "Sonsonate" },
    { "state": "Sonsonate", "id_depto":13, "city": "Acajutla" , "zip": "2302", "title": "Ciudad" , "district": "Sonsonate" },
    { "state": "Sonsonate", "id_depto":13, "city": "Armenia" , "zip": "2303", "title": "Ciudad" , "district": "Izalco" },
    { "state": "Sonsonate", "id_depto":13, "city": "Caluco" , "zip": "2304", "title": "Pueblo" , "district": "Izalco" },
    { "state": "Sonsonate", "id_depto":13, "city": "Cuisnahuat" , "zip": "2305", "title": "Pueblo" , "district": "Izalco" },
    { "state": "Sonsonate", "id_depto":13, "city": "Izalco" , "zip": "2306", "title": "Ciudad" , "district": "Izalco" },
    { "state": "Sonsonate", "id_depto":13, "city": "Juayúa" , "zip": "2307", "title": "Ciudad" , "district": "Juayúa" },
    { "state": "Sonsonate", "id_depto":13, "city": "Nahuizalco" , "zip": "2311", "title": "Ciudad" , "district": "Sonsonate" },
    { "state": "Sonsonate", "id_depto":13, "city": "Nahulingo" , "zip": "2312", "title": "Pueblo" , "district": "Sonsonate" },
    { "state": "Sonsonate", "id_depto":13, "city": "Salcoatitán" , "zip": "2313", "title": "Pueblo" , "district": "Juayúa" },
    { "state": "Sonsonate", "id_depto":13, "city": "San Antonio del Monte" , "zip": "2314", "title": "Villa" , "district": "Sonsonate" },
    { "state": "Sonsonate", "id_depto":13, "city": "San Julián" , "zip": "2316", "title": "Ciudad" , "district": "Izalco" },
    { "state": "Sonsonate", "id_depto":13, "city": "Santa Catarina Masahuat" , "zip": "2317", "title": "Pueblo" , "district": "Juayúa" },
    { "state": "Sonsonate", "id_depto":13, "city": "Santa Isabel Ishuatán" , "zip": "2318", "title": "Villa" , "district": "Izalco" },
    { "state": "Sonsonate", "id_depto":13, "city": "Santo Domingo de Guzmán" , "zip": "2319", "title": "Pueblo" , "district": "Sonsonate" },
    { "state": "Sonsonate", "id_depto":13, "city": "Sonzacate" , "zip": "2320", "title": "Pueblo" , "district": "Sonsonate" },
    { "state": "Usulután", "id_depto": 14, "city": "Usulután" , "zip": "3401", "title": "Ciudad Cabecera" , "district": "Usulután" },
    { "state": "Usulután", "id_depto": 14, "city": "Alegría" , "zip": "3404", "title": "Ciudad" , "district": "Santiago de María" },
    { "state": "Usulután", "id_depto": 14, "city": "Berlín" , "zip": "3403", "title": "Ciudad" , "district": "Berlín" },
    { "state": "Usulután", "id_depto": 14, "city": "California" , "zip": "3404", "title": "Pueblo" , "district": "Santiago de María" },
    { "state": "Usulután", "id_depto": 14, "city": "Concepción Batres" , "zip": "3405", "title": "Villa" , "district": "Usulután" },
    { "state": "Usulután", "id_depto": 14, "city": "El Triunfo" , "zip": "3406", "title": "Villa" , "district": "Estanzuelas" },
    { "state": "Usulután", "id_depto": 14, "city": "Ereguayquín" , "zip": "3407", "title": "Pueblo" , "district": "Usulután" },
    { "state": "Usulután", "id_depto": 14, "city": "Estanzuelas" , "zip": "3408", "title": "Ciudad" , "district": "Estanzuelas" },
    { "state": "Usulután", "id_depto": 14, "city": "Jiquilisco" , "zip": "3409", "title": "Ciudad" , "district": "Usulután" },
    { "state": "Usulután", "id_depto": 14, "city": "Jucuapa" , "zip": "3410", "title": "Villa" , "district": "Estanzuelas" },
    { "state": "Usulután", "id_depto": 14, "city": "Jucuarán" , "zip": "3411", "title": "Villa" , "district": "Usulután" },
    { "state": "Usulután", "id_depto": 14, "city": "Mercedes Umaña" , "zip": "3412", "title": "Villa" , "district": "Berlín" },
    { "state": "Usulután", "id_depto": 14, "city": "Nueva Granada" , "zip": "3413", "title": "Villa" , "district": "Estanzuelas" },
    { "state": "Usulután", "id_depto": 14, "city": "Ozatlán" , "zip": "3415", "title": "Villa" , "district": "Usulután" },
    { "state": "Usulután", "id_depto": 14, "city": "Puerto El Triunfo" , "zip": "3417", "title": "Pueblo" , "district": "Usulután" },
    { "state": "Usulután", "id_depto": 14, "city": "San Agustín" , "zip": "3418", "title": "Villa" , "district": "Berlín" },
    { "state": "Usulután", "id_depto": 14, "city": "San Buenaventura" , "zip": "3419", "title": "Pueblo" , "district": "Estanzuelas" },
    { "state": "Usulután", "id_depto": 14, "city": "San Dionisio" , "zip": "3420", "title": "Pueblo" , "district": "Usulután" },
    { "state": "Usulután", "id_depto": 14, "city": "San Francisco Javier" , "zip": "3421", "title": "Pueblo" , "district": "Berlín" },
    { "state": "Usulután", "id_depto": 14, "city": "Santa Elena" , "zip": "3422", "title": "Ciudad" , "district": "Usulután" },
    { "state": "Usulután", "id_depto": 14, "city": "Santa María" , "zip": "3423", "title": "Pueblo" , "district": "Usulután" },
    { "state": "Usulután", "id_depto": 14, "city": "Santiago de María" , "zip": "3424", "title": "Ciudad" , "district": "Santiago de María" },
    { "state": "Usulután", "id_depto": 14, "city": "Tecapán" , "zip": "3426" , "title": "Villa" , "district": "Santiago de María" }
]